HAWK-5A                 
1 52757U 22057AB  26163.07695539  .00017679  00000+0  30355-3 0  9992
2 52757  97.6591 321.5962 0005875  94.1158 266.0765 15.51210279225550
HAWK-6B                 
1 55324U 23011A   26163.00250361  .00004713  00000+0  20502-3 0  9997
2 55324  40.4992  22.3116 0003244 331.8485  28.2149 15.22884024187052
HAWK-6C                 
1 55326U 23011C   26160.37868959  .00004206  00000+0  18395-3 0  9998
2 55326  40.4982  34.4522 0004314 308.3612  51.6810 15.22867772186660
HAWK-6A                 
1 55327U 23011D   26162.34610284  .00004031  00000+0  17656-3 0  9999
2 55327  40.4992  24.6026 0003768 316.5498  43.5014 15.22877524186962
HAWK-7A                 
1 56191U 23054P   26163.19669361  .00005639  00000+0  21343-3 0  9993
2 56191  97.2710  50.6607 0004628  67.7192 292.4537 15.27309862176263
HAWK-7B                 
1 56193U 23054R   26163.19660224  .00005601  00000+0  21201-3 0  9996
2 56193  97.2742  48.9234 0003929  78.0409 282.1271 15.27313104176260
HAWK-7C                 
1 56200U 23054Y   26163.19649751  .00005681  00000+0  21502-3 0  9999
2 56200  97.2717  49.6935 0003961  69.8219 290.3446 15.27309985176267
